MMSATS-1                
1 47976U 98067SJ  21147.93535942  .00002822  00000-0  57990-4 0  9996
2 47976  51.6463  82.6446 0002980  31.9143 328.2025 15.49697159 10368
BCCSAT 1                
1 48041U 21022AK  21147.89641192  .00001317  00000-0  93157-4 0  9990
2 48041  97.5592  50.5457 0016809  17.7050 114.6852 15.06482267  8754
